OBJECT_NAME,OBJECT_ID,EPOCH,MEAN_MOTION,ECCENTRICITY,INCLINATION,RA_OF_ASC_NODE,ARG_OF_PERICENTER,MEAN_ANOMALY,EPHEMERIS_TYPE,CLASSIFICATION_TYPE,NORAD_CAT_ID,ELEMENT_SET_NO,REV_AT_EPOCH,BSTAR,MEAN_MOTION_DOT,MEAN_MOTION_DDOT
QZS-6 (MICHIBIKI-6),2025-023A,2026-07-09T15:47:38.587200,1.00268684,.0001836,0.0250,308.9384,179.5973,126.4649,0,U,62876,999,517,0,-.22E-5,0
ZHONGXING-10R,2025-036A,2026-07-09T17:34:38.623008,1.00266474,.0004165,0.0457,226.5108,287.3993,147.8825,0,U,63075,999,518,0,-.339E-5,0
TJS-15,2025-045A,2026-07-09T17:14:39.467904,1.00271387,.0003426,0.3057,85.6422,296.7568,258.2916,0,U,63157,999,498,0,-.252E-5,0
TIANLIAN 2-04,2025-062A,2026-07-09T20:52:43.222944,1.00270048,.0031501,4.3192,274.1126,9.3360,37.5665,0,U,63361,999,483,0,-.118E-5,0
TJS-16,2025-064A,2026-07-09T17:29:01.440096,1.00271007,.0002559,1.1532,81.3206,292.1918,337.0309,0,U,63397,999,461,0,-.94E-6,0
TJS-17,2025-073A,2026-07-09T17:28:14.061792,1.00270466,.0001089,1.1191,82.5040,306.6073,325.1263,0,U,63524,999,451,0,-.58E-6,0
TIANLIAN 2-05,2025-084A,2026-07-09T20:35:32.017344,1.00269704,.0002738,4.3965,279.5726,152.7704,184.7122,0,U,63662,999,460,0,.141E-5,0
TJS-19,2025-097A,2026-07-09T17:30:46.187136,1.00268429,.0003867,3.2501,317.7916,243.8122,129.9952,0,U,63924,999,437,0,-.261E-5,0
CHINASAT 3B,2025-106A,2026-07-09T21:17:24.131904,1.00272125,.0003781,0.0383,181.1469,320.1784,273.1518,0,U,64062,999,428,0,-.33E-6,0
SXM-10,2025-122A,2026-07-09T15:33:11.850048,1.00269524,.000185,0.0177,38.0642,321.4700,45.1931,0,U,64290,999,390,0,-.4E-7,0
COSMOS 2589,2025-131A,2026-07-09T15:49:30.908064,1.00268574,.0001362,0.0519,100.8521,120.4538,41.6337,0,U,64467,999,378,0,-.278E-5,0
CHINASAT 9C,2025-132A,2026-07-09T16:16:51.682080,1.00270843,.0002947,0.0333,246.1715,225.4382,152.4350,0,U,64470,999,437,0,-.235E-5,0
MTG-S1,2025-143A,2026-07-09T17:04:22.304064,1.00272641,.0003402,0.5877,343.7510,262.1247,297.4247,0,U,64723,999,364,0,.5E-7,0
DROR 1,2025-148A,2026-07-09T15:20:37.779360,1.00271268,.0002132,0.0539,267.0847,129.6874,116.9535,0,U,64784,999,352,0,-.22E-6,0
SHIYAN-29,2025-196A,2026-07-08T21:02:05.274816,1.00278544,.00135515,28.8440,18.2619,176.8148,142.4919,0,U,65486,999,309,0,-.274E-5,0
NUSANTARA LIMA (NUSANTARA 5),2025-205A,2026-07-09T17:34:38.623008,1.00267988,.0000673,0.0010,150.4237,34.0010,119.7554,0,U,65588,999,294,0,-.345E-5,0
TJS-20,2025-238A,2026-07-09T17:02:38.694048,1.00273439,.0004405,5.4212,299.4573,178.6179,127.6389,0,U,66142,999,255,0,.42E-6,0
CMS-03 (GSAT-7R),2025-249B,2026-07-09T16:38:38.627232,1.00271218,.0001571,0.0429,258.8642,178.8059,173.5923,0,U,66311,999,257,0,-.64E-6,0
VIASAT-3 F2,2025-261A,2026-07-09T00:38:07.603296,1.00270980,.00008425,0.0039,233.2143,346.9879,357.3322,0,U,66454,999,301,0,-.219E-5,0
SHIJIAN-28 (SJ-28),2025-277A,2026-07-09T15:55:07.504320,1.00270039,.0001074,4.4828,271.7753,26.6893,344.7734,0,U,66549,999,238,0,-.342E-5,0
TJS-22,2025-290A,2026-07-09T19:33:30.544704,1.00274780,.0002263,1.4744,286.8551,318.0128,42.8074,0,U,66990,999,225,0,.6E-7,0
TJS-23,2025-306A,2026-07-09T12:58:20.972064,1.00274138,.0004886,5.5376,297.3710,190.2855,169.9087,0,U,67226,999,211,0,.35E-6,0
FENGYUN 4C,2025-312A,2026-07-09T05:43:44.281344,1.00271510,.0000535,0.0413,187.4608,18.2855,300.3735,0,U,67246,999,200,0,-.309E-5,0
SHIJIAN-29A (SJ-29A),2025-315A,2026-07-09T16:38:38.627232,1.00270625,.0003329,3.4520,94.5756,32.6102,123.2189,0,U,67302,999,184,0,-.57E-6,0
SHIJIAN-29B (SJ-29B),2025-315C,2026-07-09T15:42:39.066048,1.00271964,.0004791,3.4509,94.5701,50.6332,91.2356,0,U,67403,999,191,0,-.58E-6,0
ELEKTRO-L 5,2026-028A,2026-07-08T23:48:01.181376,1.00271950,.00019343,0.2156,321.5664,177.5080,220.9428,0,U,67756,999,147,0,-.83E-6,0
JAM-E JAM 1,2026-028B,2026-07-09T17:14:06.368928,1.00271184,.0001606,0.2169,310.1568,325.5796,304.4475,0,U,67757,999,134,0,.168E-5,0
ECHOSTAR 25,2026-045A,2026-07-09T15:39:18.120384,1.00270527,.0001443,0.0170,34.8595,73.0161,304.5349,0,U,68126,999,121,0,-.44E-6,0
TJS-24,2026-116A,2026-07-09T19:12:49.966848,1.00271408,.0000265,0.0635,97.0200,119.7302,89.4972,0,U,69235,999,45,0,-.219E-5,0
