QZS-6 (MICHIBIKI-6)     
1 62876U 25023A   26190.65808550 -.00000220  00000+0  00000+0 0  9999
2 62876   0.0250 308.9384 0001836 179.5973 126.4649  1.00268684  5172
ZHONGXING-10R           
1 63075U 25036A   26190.73239147 -.00000339  00000+0  00000+0 0  9995
2 63075   0.0457 226.5108 0004165 287.3993 147.8825  1.00266474  5189
TJS-15                  
1 63157U 25045A   26190.71851236 -.00000252  00000+0  00000+0 0  9997
2 63157   0.3057  85.6422 0003426 296.7568 258.2916  1.00271387  4987
TIANLIAN 2-04           
1 63361U 25062A   26190.86994471 -.00000118  00000+0  00000+0 0  9999
2 63361   4.3192 274.1126 0031501   9.3360  37.5665  1.00270048  4833
TJS-16                  
1 63397U 25064A   26190.72848889 -.00000094  00000+0  00000+0 0  9999
2 63397   1.1532  81.3206 0002559 292.1918 337.0309  1.00271007  4619
TJS-17                  
1 63524U 25073A   26190.72794053 -.00000058  00000+0  00000+0 0  9994
2 63524   1.1191  82.5040 0001089 306.6073 325.1263  1.00270466  4515
TIANLIAN 2-05           
1 63662U 25084A   26190.85800946  .00000141  00000+0  00000+0 0  9994
2 63662   4.3965 279.5726 0002738 152.7704 184.7122  1.00269704  4600
TJS-19                  
1 63924U 25097A   26190.72970124 -.00000261  00000+0  00000+0 0  9995
2 63924   3.2501 317.7916 0003867 243.8122 129.9952  1.00268429  4370
CHINASAT 3B             
1 64062U 25106A   26190.88708486 -.00000033  00000+0  00000+0 0  9994
2 64062   0.0383 181.1469 0003781 320.1784 273.1518  1.00272125  4289
SXM-10                  
1 64290U 25122A   26190.64805382 -.00000004  00000+0  00000+0 0  9990
2 64290   0.0177  38.0642 0001850 321.4700  45.1931  1.00269524  3906
COSMOS 2589             
1 64467U 25131A   26190.65938551 -.00000278  00000+0  00000+0 0  9995
2 64467   0.0519 100.8521 0001362 120.4538  41.6337  1.00268574  3781
CHINASAT 9C             
1 64470U 25132A   26190.67837595 -.00000235  00000+0  00000+0 0  9991
2 64470   0.0333 246.1715 0002947 225.4382 152.4350  1.00270843  4375
MTG-S1                  
1 64723U 25143A   26190.71136926  .00000005  00000+0  00000+0 0  9993
2 64723   0.5877 343.7510 0003402 262.1247 297.4247  1.00272641  3648
DROR 1                  
1 64784U 25148A   26190.63932615 -.00000022  00000+0  00000+0 0  9995
2 64784   0.0539 267.0847 0002132 129.6874 116.9535  1.00271268  3524
SHIYAN-29               
1 65486U 25196A   26189.87644994 -.00000274  00000+0  00000+0 0  9991
2 65486  28.8440  18.2619 0013551 176.8148 142.4919  1.00278544  3097
NUSANTARA LIMA (NUSANT*)
1 65588U 25205A   26190.73239147 -.00000345  00000+0  00000+0 0  9991
2 65588   0.0010 150.4237 0000673  34.0010 119.7554  1.00267988  2949
TJS-20                  
1 66142U 25238A   26190.71017007  .00000042  00000+0  00000+0 0  9994
2 66142   5.4212 299.4573 0004405 178.6179 127.6389  1.00273439  2553
CMS-03 (GSAT-7R)        
1 66311U 25249B   26190.69350263 -.00000064  00000+0  00000+0 0  9990
2 66311   0.0429 258.8642 0001571 178.8059 173.5923  1.00271218  2577
VIASAT-3 F2             
1 66454U 25261A   26190.02647689 -.00000219  00000+0  00000+0 0  9992
2 66454   0.0039 233.2143 0000842 346.9879 357.3322  1.00270980  3013
SHIJIAN-28 (SJ-28)      
1 66549U 25277A   26190.66328130 -.00000342  00000+0  00000+0 0  9998
2 66549   4.4828 271.7753 0001074  26.6893 344.7734  1.00270039  2383
TJS-22                  
1 66990U 25290A   26190.81493686  .00000006  00000+0  00000+0 0  9995
2 66990   1.4744 286.8551 0002263 318.0128  42.8074  1.00274780  2256
TJS-23                  
1 67226U 25306A   26190.54052051  .00000035  00000+0  00000+0 0  9995
2 67226   5.5376 297.3710 0004886 190.2855 169.9087  1.00274138  2116
FENGYUN 4C              
1 67246U 25312A   26190.23870696 -.00000309  00000+0  00000+0 0  9998
2 67246   0.0413 187.4608 0000535  18.2855 300.3735  1.00271510  2001
SHIJIAN-29A (SJ-29A)    
1 67302U 25315A   26190.69350263 -.00000057  00000+0  00000+0 0  9997
2 67302   3.4520  94.5756 0003329  32.6102 123.2189  1.00270625  1843
SHIJIAN-29B (SJ-29B)    
1 67403U 25315C   26190.65461882 -.00000058  00000+0  00000+0 0  9996
2 67403   3.4509  94.5701 0004791  50.6332  91.2356  1.00271964  1916
ELEKTRO-L 5             
1 67756U 26028A   26189.99168034 -.00000083  00000+0  00000+0 0  9995
2 67756   0.2156 321.5664 0001934 177.5080 220.9428  1.00271950  1473
JAM-E JAM 1             
1 67757U 26028B   26190.71812927  .00000168  00000+0  00000+0 0  9998
2 67757   0.2169 310.1568 0001606 325.5796 304.4475  1.00271184  1345
ECHOSTAR 25             
1 68126U 26045A   26190.65229306 -.00000044  00000+0  00000+0 0  9998
2 68126   0.0170  34.8595 0001443  73.0161 304.5349  1.00270527  1213
TJS-24                  
1 69235U 26116A   26190.80057832 -.00000219  00000+0  00000+0 0  9993
2 69235   0.0635  97.0200 0000265 119.7302  89.4972  1.00271408   456
